DUBAISAT-1              
1 35682U 09041B   26169.92053049  .00000577  00000+0  93038-4 0  9999
2 35682  98.0055 303.1592 0011607  68.8090 291.4358 14.75124777905351
OCEANSAT-2              
1 35931U 09051A   26169.91520569 -.00000171  00000+0 -91361-4 0  9991
2 35931  98.2331 156.5943 0015339 230.7642 129.2163 13.99664006879571
WORLDVIEW-2 (WV-2)      
1 35946U 09055A   26169.97303561  .00000079  00000+0  40748-4 0  9996
2 35946  98.4737 243.3980 0003815 201.9891 158.1133 14.37899853875901
SMOS                    
1 36036U 09059A   26169.78792734  .00000172  00000+0  68816-4 0  9994
2 36036  98.4425 357.0993 0001325  88.4678 271.6662 14.39773289873685
YAOGAN-7                
1 36110U 09069A   26169.91667154  .00000359  00000+0  56810-4 0  9998
2 36110  98.0070  55.7731 0025473  36.3876 323.9060 14.78011350889883
TANDEM-X                
1 36605U 10030A   26168.58693710  .00000287  00000+0  16858-4 0  9994
2 36605  97.4451 176.2891 0001888  87.7615 272.3836 15.19150445886700
CARTOSAT-2B             
1 36795U 10035A   26169.96376345  .00000392  00000+0  60669-4 0  9990
2 36795  97.9947 220.5024 0011349 177.9826 182.1432 14.78662553860114
YAOGAN-10               
1 36834U 10038A   26170.02924973  .00001378  00000+0  16651-3 0  9998
2 36834  97.8969 193.4188 0001710  89.5462 299.2458 14.85353752857485
COSMO-SKYMED 4          
1 37216U 10060A   26169.99649859  .00000537  00000+0  74046-4 0  9998
2 37216  97.8882 353.5694 0001391  83.5245 276.6127 14.82154865844831
RESOURCESAT-2           
1 37387U 11015A   26169.63742618  .00000081  00000+0  57062-4 0  9999
2 37387  98.7644 237.0693 0010245 250.8490 109.1579 14.21606885786383
HAIYANG-2A              
1 37781U 11043A   26169.93118610 -.00000267  00000+0 -23706-3 0  9995
2 37781  99.3390 172.5688 0005800  88.3908 271.7906 13.74331529746891
RASAT                   
1 37791U 11044D   26169.95447472  .00000071  00000+0  20758-4 0  9996
2 37791  98.0579 261.3242 0020319 183.0711 265.0363 14.68166463793440
SRMSAT                  
1 37841U 11058D   26169.98131097  .00000356  00000+0  49105-4 0  9996
2 37841  19.9727  48.6073 0011756 223.4151 164.4709 14.11575904758071
PLEIADES 1A             
1 38012U 11076F   26169.99915079  .00000023  00000+0  14792-4 0  9993
2 38012  98.1976 245.0780 0001697  96.3213  77.1452 14.58571216772258
ZIYUAN 1-02C (ZY 1-02C) 
1 38038U 11079A   26169.97549137  .00000240  00000+0  93052-4 0  9997
2 38038  98.4070 237.2468 0005381 310.3197 222.8452 14.38215737759462
ARIRANG-3 (KOMPSAT-3)   
1 38338U 12025B   26169.94876650  .00000328  00000+0  74298-4 0  9990
2 38338  98.1171 127.3783 0006719 104.9345 255.2601 14.62207429751601
EXACTVIEW-1 (ADS-1B)    
1 38709U 12039C   26169.92598472  .00000087  00000+0  57068-4 0  9996
2 38709  98.9780 287.3554 0011254 161.5551 198.6038 14.24985007722951
SPOT 6                  
1 38755U 12047A   26169.91285966  .00000112  00000+0  34041-4 0  9991
2 38755  98.2117 237.2019 0001515  93.2496 266.8876 14.58563546733303
PLEIADES 1B             
1 39019U 12068A   26170.00038284  .00000130  00000+0  37839-4 0  9997
2 39019  98.1947 245.0272 0001676  91.5402 268.5990 14.58561184721119
GOKTURK 2               
1 39030U 12073A   26169.97955692  .00000743  00000+0  11602-3 0  9990
2 39030  97.6811   7.3207 0001534  56.0773 304.0583 14.75545524724771
LANDSAT 8               
1 39084U 13008A   26169.94750265  .00000215  00000+0  57765-4 0  9999
2 39084  98.2302 240.0619 0001351  93.7561 266.3792 14.57095439698154
SARAL                   
1 39086U 13009A   26169.92634072  .00000054  00000+0  35927-4 0  9994
2 39086  98.5557 356.4715 0000652 297.0465  63.0653 14.32856298695858
GAOFEN-1                
1 39150U 13018A   26169.96048757  .00000384  00000+0  62308-4 0  9998
2 39150  97.9094 241.9924 0015694 259.9701  99.9739 14.76537711708505
VNREDSAT 1              
1 39160U 13021B   26170.00161275  .00000415  00000+0  86178-4 0  9997
2 39160  97.9075 223.3486 0001729  88.6147 271.5254 14.64858448700554
ARIRANG-5 (KOMPSAT-5)   
1 39227U 13042A   26169.96185262  .00000760  00000+0  58628-4 0  9991
2 39227  97.6200 356.6373 0005422 115.9452 244.2333 15.04495475704121
SKYSAT-A                
1 39418U 13066C   26169.38165462  .00001913  00000+0  11156-3 0  9990
2 39418  97.3811 218.7409 0020020 313.1240  46.8317 15.12980718688660
DUBAISAT-2              
1 39419U 13066D   26169.92604477  .00003059  00000+0  19088-3 0  9990
2 39419  97.4562 160.0244 0011993  35.0906 325.1111 15.10191138686659
GPM-CORE                
1 39574U 14009C   26169.89285563  .00009084  00000+0  19897-3 0  9999
2 39574  64.9725 302.4142 0011768 252.1812 107.8045 15.44602021698073
SENTINEL-1A             
1 39634U 14016A   26170.01320822 -.00000003  00000+0  90306-5 0  9997
2 39634  98.1775 177.5196 0001398  81.9314 278.2044 14.59199222650289
KAZEOSAT 1              
1 39731U 14024A   26169.96446306 -.00000093  00000+0 -15294-4 0  9994
2 39731  98.3205 242.3677 0001325  76.7798 283.3540 14.42079923638810
