OBJECT_NAME,OBJECT_ID,EPOCH,MEAN_MOTION,ECCENTRICITY,INCLINATION,RA_OF_ASC_NODE,ARG_OF_PERICENTER,MEAN_ANOMALY,EPHEMERIS_TYPE,CLASSIFICATION_TYPE,NORAD_CAT_ID,ELEMENT_SET_NO,REV_AT_EPOCH,BSTAR,MEAN_MOTION_DOT,MEAN_MOTION_DDOT
DUBAISAT-1,2009-041B,2026-06-18T22:05:33.834336,14.75124777,.00116076,98.0055,303.1592,68.8090,291.4358,0,U,35682,999,90535,.9303764E-4,.577E-5,0
OCEANSAT-2,2009-051A,2026-06-18T21:57:53.771616,13.99664006,.00153394,98.2331,156.5943,230.7642,129.2163,0,U,35931,999,87957,-.91360897E-4,-.171E-5,0
WORLDVIEW-2 (WV-2),2009-055A,2026-06-18T23:21:10.276704,14.37899853,.00038158,98.4737,243.3980,201.9891,158.1133,0,U,35946,999,87590,.40748201E-4,.79E-6,0
SMOS,2009-059A,2026-06-18T18:54:36.922176,14.39773289,.00013252,98.4425,357.0993,88.4678,271.6662,0,U,36036,999,87368,.688158E-4,.172E-5,0
YAOGAN-7,2009-069A,2026-06-18T22:00:00.421056,14.78011350,.00254737,98.0070,55.7731,36.3876,323.9060,0,U,36110,999,88988,.56810364E-4,.359E-5,0
TANDEM-X,2010-030A,2026-06-17T14:05:11.365440,15.19150445,.00018883,97.4451,176.2891,87.7615,272.3836,0,U,36605,999,88670,.16858258E-4,.287E-5,0
CARTOSAT-2B,2010-035A,2026-06-18T23:07:49.162080,14.78662553,.00113493,97.9947,220.5024,177.9826,182.1432,0,U,36795,999,86011,.60669296E-4,.392E-5,0
YAOGAN-10,2010-038A,2026-06-19T00:42:07.176672,14.85353752,.00017107,97.8969,193.4188,89.5462,299.2458,0,U,36834,999,85748,.16650858E-3,.1378E-4,0
COSMO-SKYMED 4,2010-060A,2026-06-18T23:54:57.478176,14.82154865,.00013917,97.8882,353.5694,83.5245,276.6127,0,U,37216,999,84483,.74045802E-4,.537E-5,0
RESOURCESAT-2,2011-015A,2026-06-18T15:17:53.621952,14.21606885,.00102453,98.7644,237.0693,250.8490,109.1579,0,U,37387,999,78638,.57061775E-4,.81E-6,0
HAIYANG-2A,2011-043A,2026-06-18T22:20:54.479040,13.74331529,.00058,99.3390,172.5688,88.3908,271.7906,0,U,37781,999,74689,-.23706452E-3,-.267E-5,0
RASAT,2011-044D,2026-06-18T22:54:26.615808,14.68166463,.00203191,98.0579,261.3242,183.0711,265.0363,0,U,37791,999,79344,.2075791E-4,.71E-6,0
SRMSAT,2011-058D,2026-06-18T23:33:05.267808,14.11575904,.00117566,19.9727,48.6073,223.4151,164.4709,0,U,37841,999,75807,.49105244E-4,.356E-5,0
PLEIADES 1A,2011-076F,2026-06-18T23:58:46.628256,14.58571216,.00016972,98.1976,245.0780,96.3213,77.1452,0,U,38012,999,77225,.14792135E-4,.23E-6,0
ZIYUAN 1-02C (ZY 1-02C),2011-079A,2026-06-18T23:24:42.454368,14.38215737,.00053812,98.4070,237.2468,310.3197,222.8452,0,U,38038,999,75946,.93052372E-4,.24E-5,0
ARIRANG-3 (KOMPSAT-3),2012-025B,2026-06-18T22:46:13.425600,14.62207429,.00067197,98.1171,127.3783,104.9345,255.2601,0,U,38338,999,75160,.74298485E-4,.328E-5,0
EXACTVIEW-1 (ADS-1B),2012-039C,2026-06-18T22:13:25.079808,14.24985007,.00112547,98.9780,287.3554,161.5551,198.6038,0,U,38709,999,72295,.57068209E-4,.87E-6,0
SPOT 6,2012-047A,2026-06-18T21:54:31.074624,14.58563546,.00015152,98.2117,237.2019,93.2496,266.8876,0,U,38755,999,73330,.34041089E-4,.112E-5,0
PLEIADES 1B,2012-068A,2026-06-19T00:00:33.077376,14.58561184,.00016769,98.1947,245.0272,91.5402,268.5990,0,U,39019,999,72111,.3783946E-4,.13E-5,0
GOKTURK 2,2012-073A,2026-06-18T23:30:33.717888,14.75545524,.00015346,97.6811,7.3207,56.0773,304.0583,0,U,39030,999,72477,.11602079E-3,.743E-5,0
LANDSAT 8,2013-008A,2026-06-18T22:44:24.228960,14.57095439,.00013513,98.2302,240.0619,93.7561,266.3792,0,U,39084,999,69815,.57764661E-4,.215E-5,0
SARAL,2013-009A,2026-06-18T22:13:55.838208,14.32856298,.00006528,98.5557,356.4715,297.0465,63.0653,0,U,39086,999,69585,.35927312E-4,.54E-6,0
GAOFEN-1,2013-018A,2026-06-18T23:03:06.126048,14.76537711,.00156949,97.9094,241.9924,259.9701,99.9739,0,U,39150,999,70850,.62308373E-4,.384E-5,0
VNREDSAT 1,2013-021B,2026-06-19T00:02:19.341600,14.64858448,.00017291,97.9075,223.3486,88.6147,271.5254,0,U,39160,999,70055,.86178347E-4,.415E-5,0
ARIRANG-5 (KOMPSAT-5),2013-042A,2026-06-18T23:05:04.066368,15.04495475,.00054228,97.6200,356.6373,115.9452,244.2333,0,U,39227,999,70412,.58627612E-4,.76E-5,0
SKYSAT-A,2013-066C,2026-06-18T09:09:34.959168,15.12980718,.002002,97.3811,218.7409,313.1240,46.8317,0,U,39418,999,68866,.11156E-3,.1913E-4,0
DUBAISAT-2,2013-066D,2026-06-18T22:13:30.268128,15.10191138,.00119934,97.4562,160.0244,35.0906,325.1111,0,U,39419,999,68665,.19088416E-3,.3059E-4,0
GPM-CORE,2014-009C,2026-06-18T21:25:42.726432,15.44602021,.00117685,64.9725,302.4142,252.1812,107.8045,0,U,39574,999,69807,.19897262E-3,.9084E-4,0
SENTINEL-1A,2014-016A,2026-06-19T00:19:01.190208,14.59199222,.00013988,98.1775,177.5196,81.9314,278.2044,0,U,39634,999,65028,.903063E-5,-.3E-7,0
KAZEOSAT 1,2014-024A,2026-06-18T23:08:49.608384,14.42079923,.00013253,98.3205,242.3677,76.7798,283.3540,0,U,39731,999,63881,-.15294171E-4,-.93E-6,0
